[{"OBJECT_NAME":"ALOS (DAICHI)","OBJECT_ID":"2006-002A","EPOCH":"2026-04-16T06:49:03.076032","MEAN_MOTION":14.69920898,"ECCENTRICITY":0.00015954,"INCLINATION":98.1277,"RA_OF_ASC_NODE":62.0693,"ARG_OF_PERICENTER":112.4459,"MEAN_ANOMALY":247.6916,"EPHEMERIS_TYPE":0,"CLASSIFICATION_TYPE":"U","NORAD_CAT_ID":28931,"ELEMENT_SET_NO":999,"REV_AT_EPOCH":7900,"BSTAR":0.0001160105,"MEAN_MOTION_DOT":6.45e-6,"MEAN_MOTION_DDOT":0},{"OBJECT_NAME":"H-2A R/B","OBJECT_ID":"2006-002B","EPOCH":"2026-04-15T22:43:30.552096","MEAN_MOTION":15.17245588,"ECCENTRICITY":0.00526496,"INCLINATION":98.2481,"RA_OF_ASC_NODE":256.2154,"ARG_OF_PERICENTER":114.6836,"MEAN_ANOMALY":245.989,"EPHEMERIS_TYPE":0,"CLASSIFICATION_TYPE":"U","NORAD_CAT_ID":28932,"ELEMENT_SET_NO":999,"REV_AT_EPOCH":10008,"BSTAR":0.00025450243,"MEAN_MOTION_DOT":5.166e-5,"MEAN_MOTION_DDOT":0},{"OBJECT_NAME":"RESURS-DK 1","OBJECT_ID":"2006-021A","EPOCH":"2026-04-16T05:21:23.273856","MEAN_MOTION":15.12951145,"ECCENTRICITY":0.00025097,"INCLINATION":69.9297,"RA_OF_ASC_NODE":139.9207,"ARG_OF_PERICENTER":2.7049,"MEAN_ANOMALY":357.413,"EPHEMERIS_TYPE":0,"CLASSIFICATION_TYPE":"U","NORAD_CAT_ID":29228,"ELEMENT_SET_NO":999,"REV_AT_EPOCH":9320,"BSTAR":7.0287522e-5,"MEAN_MOTION_DOT":1.134e-5,"MEAN_MOTION_DDOT":0},{"OBJECT_NAME":"CZ-4B R/B","OBJECT_ID":"2006-046C","EPOCH":"2026-04-16T01:45:07.018560","MEAN_MOTION":15.1727865,"ECCENTRICITY":0.00342713,"INCLINATION":97.5522,"RA_OF_ASC_NODE":150.8755,"ARG_OF_PERICENTER":136.1719,"MEAN_ANOMALY":224.2243,"EPHEMERIS_TYPE":0,"CLASSIFICATION_TYPE":"U","NORAD_CAT_ID":29507,"ELEMENT_SET_NO":999,"REV_AT_EPOCH":6571,"BSTAR":0.00013399531,"MEAN_MOTION_DOT":2.638e-5,"MEAN_MOTION_DDOT":0},{"OBJECT_NAME":"CZ-2C R/B","OBJECT_ID":"2007-010B","EPOCH":"2026-04-16T06:37:15.294144","MEAN_MOTION":14.20260004,"ECCENTRICITY":0.00590016,"INCLINATION":98.4022,"RA_OF_ASC_NODE":217.6783,"ARG_OF_PERICENTER":183.7886,"MEAN_ANOMALY":176.2853,"EPHEMERIS_TYPE":0,"CLASSIFICATION_TYPE":"U","NORAD_CAT_ID":31114,"ELEMENT_SET_NO":999,"REV_AT_EPOCH":98505,"BSTAR":5.1028691e-5,"MEAN_MOTION_DOT":7.0e-7,"MEAN_MOTION_DDOT":0},{"OBJECT_NAME":"COSMO-SKYMED 1","OBJECT_ID":"2007-023A","EPOCH":"2026-04-16T05:42:01.825632","MEAN_MOTION":14.96801393,"ECCENTRICITY":0.00013313,"INCLINATION":97.8878,"RA_OF_ASC_NODE":297.5788,"ARG_OF_PERICENTER":85.6548,"MEAN_ANOMALY":274.4825,"EPHEMERIS_TYPE":0,"CLASSIFICATION_TYPE":"U","NORAD_CAT_ID":31598,"ELEMENT_SET_NO":999,"REV_AT_EPOCH":2052,"BSTAR":8.7242018e-5,"MEAN_MOTION_DOT":9.39e-6,"MEAN_MOTION_DDOT":0},{"OBJECT_NAME":"COSMOS 2428","OBJECT_ID":"2007-029A","EPOCH":"2026-04-16T06:26:32.548128","MEAN_MOTION":14.12947874,"ECCENTRICITY":0.00094777,"INCLINATION":70.9399,"RA_OF_ASC_NODE":124.4696,"ARG_OF_PERICENTER":236.8339,"MEAN_ANOMALY":123.1874,"EPHEMERIS_TYPE":0,"CLASSIFICATION_TYPE":"U","NORAD_CAT_ID":31792,"ELEMENT_SET_NO":999,"REV_AT_EPOCH":96940,"BSTAR":-5.0648062e-5,"MEAN_MOTION_DOT":-1.42e-6,"MEAN_MOTION_DDOT":0},{"OBJECT_NAME":"SL-16 R/B","OBJECT_ID":"2007-029B","EPOCH":"2026-04-16T06:04:01.615872","MEAN_MOTION":14.14841289,"ECCENTRICITY":0.00027226,"INCLINATION":70.9729,"RA_OF_ASC_NODE":93.4225,"ARG_OF_PERICENTER":271.579,"MEAN_ANOMALY":179.1946,"EPHEMERIS_TYPE":0,"CLASSIFICATION_TYPE":"U","NORAD_CAT_ID":31793,"ELEMENT_SET_NO":999,"REV_AT_EPOCH":97068,"BSTAR":-3.0392813e-5,"MEAN_MOTION_DOT":-1.07e-6,"MEAN_MOTION_DDOT":0},{"OBJECT_NAME":"KORONAS-FOTON","OBJECT_ID":"2009-003A","EPOCH":"2026-04-15T18:34:41.909952","MEAN_MOTION":15.44356197,"ECCENTRICITY":0.00106948,"INCLINATION":82.4296,"RA_OF_ASC_NODE":237.2899,"ARG_OF_PERICENTER":27.4714,"MEAN_ANOMALY":332.7097,"EPHEMERIS_TYPE":0,"CLASSIFICATION_TYPE":"U","NORAD_CAT_ID":33504,"ELEMENT_SET_NO":999,"REV_AT_EPOCH":95146,"BSTAR":0.00018009475,"MEAN_MOTION_DOT":8.36e-5,"MEAN_MOTION_DDOT":0},{"OBJECT_NAME":"CZ-2C R/B","OBJECT_ID":"2011-030B","EPOCH":"2026-04-15T21:37:19.127712","MEAN_MOTION":14.81339689,"ECCENTRICITY":0.00512589,"INCLINATION":97.8603,"RA_OF_ASC_NODE":62.4386,"ARG_OF_PERICENTER":228.2191,"MEAN_ANOMALY":200.1833,"EPHEMERIS_TYPE":0,"CLASSIFICATION_TYPE":"U","NORAD_CAT_ID":37731,"ELEMENT_SET_NO":999,"REV_AT_EPOCH":79560,"BSTAR":6.6598266e-5,"MEAN_MOTION_DOT":4.76e-6,"MEAN_MOTION_DDOT":0},{"OBJECT_NAME":"H-2A R/B","OBJECT_ID":"2012-025E","EPOCH":"2026-04-16T04:51:04.852800","MEAN_MOTION":14.95407205,"ECCENTRICITY":0.00439684,"INCLINATION":98.4791,"RA_OF_ASC_NODE":76.2747,"ARG_OF_PERICENTER":188.0188,"MEAN_ANOMALY":172.0333,"EPHEMERIS_TYPE":0,"CLASSIFICATION_TYPE":"U","NORAD_CAT_ID":38341,"ELEMENT_SET_NO":999,"REV_AT_EPOCH":75382,"BSTAR":0.00016563368,"MEAN_MOTION_DOT":1.794e-5,"MEAN_MOTION_DDOT":0},{"OBJECT_NAME":"SHIJIAN-16 (SJ-16)","OBJECT_ID":"2013-057A","EPOCH":"2026-04-16T07:16:31.060128","MEAN_MOTION":14.92457657,"ECCENTRICITY":0.00157549,"INCLINATION":74.97,"RA_OF_ASC_NODE":113.8762,"ARG_OF_PERICENTER":15.8018,"MEAN_ANOMALY":344.3658,"EPHEMERIS_TYPE":0,"CLASSIFICATION_TYPE":"U","NORAD_CAT_ID":39358,"ELEMENT_SET_NO":999,"REV_AT_EPOCH":67711,"BSTAR":3.0793284e-5,"MEAN_MOTION_DOT":2.87e-6,"MEAN_MOTION_DDOT":0},{"OBJECT_NAME":"SL-4 R/B","OBJECT_ID":"2014-021B","EPOCH":"2026-04-16T03:21:37.613952","MEAN_MOTION":15.40477987,"ECCENTRICITY":0.00932269,"INCLINATION":51.6054,"RA_OF_ASC_NODE":154.3938,"ARG_OF_PERICENTER":239.8977,"MEAN_ANOMALY":119.2741,"EPHEMERIS_TYPE":0,"CLASSIFICATION_TYPE":"U","NORAD_CAT_ID":39679,"ELEMENT_SET_NO":999,"REV_AT_EPOCH":66204,"BSTAR":0.0001859418,"MEAN_MOTION_DOT":8.478e-5,"MEAN_MOTION_DDOT":0},{"OBJECT_NAME":"YAOGAN-29","OBJECT_ID":"2015-069A","EPOCH":"2026-04-16T07:24:11.667168","MEAN_MOTION":14.83036366,"ECCENTRICITY":0.00010934,"INCLINATION":98.009,"RA_OF_ASC_NODE":134.8298,"ARG_OF_PERICENTER":154.2186,"MEAN_ANOMALY":205.9082,"EPHEMERIS_TYPE":0,"CLASSIFICATION_TYPE":"U","NORAD_CAT_ID":41038,"ELEMENT_SET_NO":999,"REV_AT_EPOCH":56145,"BSTAR":0.00010408439,"MEAN_MOTION_DOT":7.92e-6,"MEAN_MOTION_DDOT":0},{"OBJECT_NAME":"ASTRO-H (HITOMI)","OBJECT_ID":"2016-012A","EPOCH":"2026-04-16T07:25:46.768512","MEAN_MOTION":15.10231126,"ECCENTRICITY":0.00095429,"INCLINATION":30.998,"RA_OF_ASC_NODE":113.7287,"ARG_OF_PERICENTER":349.4515,"MEAN_ANOMALY":10.5922,"EPHEMERIS_TYPE":0,"CLASSIFICATION_TYPE":"U","NORAD_CAT_ID":41337,"ELEMENT_SET_NO":999,"REV_AT_EPOCH":55792,"BSTAR":9.556186e-5,"MEAN_MOTION_DOT":1.698e-5,"MEAN_MOTION_DDOT":0}]
