ALOS (DAICHI)           
1 28931U 06002A   26106.28406338  .00000645  00000+0  11601-3 0  9996
2 28931  98.1277  62.0693 0001595 112.4459 247.6916 14.69920898 79008
H-2A R/B                
1 28932U 06002B   26105.94688139  .00005166  00000+0  25450-3 0  9990
2 28932  98.2481 256.2154 0052649 114.6836 245.9890 15.17245588100080
RESURS-DK 1             
1 29228U 06021A   26106.22318604  .00001134  00000+0  70288-4 0  9990
2 29228  69.9297 139.9207 0002509   2.7049 357.4130 15.12951145 93207
CZ-4B R/B               
1 29507U 06046C   26106.07299790  .00002638  00000+0  13400-3 0  9996
2 29507  97.5522 150.8755 0034271 136.1719 224.2243 15.17278650 65711
CZ-2C R/B               
1 31114U 07010B   26106.27587146  .00000070  00000+0  51029-4 0  9990
2 31114  98.4022 217.6783 0059001 183.7886 176.2853 14.20260004985055
COSMO-SKYMED 1          
1 31598U 07023A   26106.23752113  .00000939  00000+0  87242-4 0  9994
2 31598  97.8878 297.5788 0001331  85.6548 274.4825 14.96801393 20520
COSMOS 2428             
1 31792U 07029A   26106.26843227 -.00000142  00000+0 -50648-4 0  9994
2 31792  70.9399 124.4696 0009477 236.8339 123.1874 14.12947874969405
SL-16 R/B               
1 31793U 07029B   26106.25279648 -.00000107  00000+0 -30393-4 0  9990
2 31793  70.9729  93.4225 0002722 271.5790 179.1946 14.14841289970687
KORONAS-FOTON           
1 33504U 09003A   26105.77409618  .00008360  00000+0  18009-3 0  9990
2 33504  82.4296 237.2899 0010694  27.4714 332.7097 15.44356197951464
CZ-2C R/B               
1 37731U 11030B   26105.90091583  .00000476  00000+0  66598-4 0  9999
2 37731  97.8603  62.4386 0051258 228.2191 200.1833 14.81339689795607
H-2A R/B                
1 38341U 12025E   26106.20213950  .00001794  00000+0  16563-3 0  9990
2 38341  98.4791  76.2747 0043968 188.0188 172.0333 14.95407205753827
SHIJIAN-16 (SJ-16)      
1 39358U 13057A   26106.30313727  .00000287  00000+0  30793-4 0  9997
2 39358  74.9700 113.8762 0015754  15.8018 344.3658 14.92457657677115
SL-4 R/B                
1 39679U 14021B   26106.14001868  .00008478  00000+0  18594-3 0  9991
2 39679  51.6054 154.3938 0093226 239.8977 119.2741 15.40477987662042
YAOGAN-29               
1 41038U 15069A   26106.30846837  .00000792  00000+0  10408-3 0  9994
2 41038  98.0090 134.8298 0001093 154.2186 205.9082 14.83036366561456
ASTRO-H (HITOMI)        
1 41337U 16012A   26106.30956908  .00001698  00000+0  95562-4 0  9997
2 41337  30.9980 113.7287 0009542 349.4515  10.5922 15.10231126557928
